[{"OBJECT_NAME":"QIANFAN-52","OBJECT_ID":"2024-232S","EPOCH":"2026-03-04T13:40:28.725024","MEAN_MOTION":13.51000668,"ECCENTRICITY":0.00141936,"INCLINATION":89.0052,"RA_OF_ASC_NODE":32.8466,"ARG_OF_PERICENTER":323.0387,"MEAN_ANOMALY":36.9785,"EPHEMERIS_TYPE":0,"CLASSIFICATION_TYPE":"U","NORAD_CAT_ID":62253,"ELEMENT_SET_NO":999,"REV_AT_EPOCH":7899,"BSTAR":0.00010216958,"MEAN_MOTION_DOT":7.8e-7,"MEAN_MOTION_DDOT":0},{"OBJECT_NAME":"QIANFAN-53","OBJECT_ID":"2024-232T","EPOCH":"2026-03-04T13:10:48.732960","MEAN_MOTION":13.51003308,"ECCENTRICITY":0.00131235,"INCLINATION":89.0059,"RA_OF_ASC_NODE":32.9593,"ARG_OF_PERICENTER":324.8817,"MEAN_ANOMALY":35.1468,"EPHEMERIS_TYPE":0,"CLASSIFICATION_TYPE":"U","NORAD_CAT_ID":62254,"ELEMENT_SET_NO":999,"REV_AT_EPOCH":7895,"BSTAR":5.5086131e-5,"MEAN_MOTION_DOT":4.7e-7,"MEAN_MOTION_DDOT":0},{"OBJECT_NAME":"QIANFAN-54","OBJECT_ID":"2024-232U","EPOCH":"2026-03-04T14:10:06.551904","MEAN_MOTION":13.51002795,"ECCENTRICITY":0.0003178,"INCLINATION":89.0051,"RA_OF_ASC_NODE":32.6265,"ARG_OF_PERICENTER":40.8092,"MEAN_ANOMALY":319.3297,"EPHEMERIS_TYPE":0,"CLASSIFICATION_TYPE":"U","NORAD_CAT_ID":62255,"ELEMENT_SET_NO":999,"REV_AT_EPOCH":11046,"BSTAR":8.5891518e-5,"MEAN_MOTION_DOT":6.7e-7,"MEAN_MOTION_DDOT":0},{"OBJECT_NAME":"QIANFAN-55","OBJECT_ID":"2025-016A","EPOCH":"2026-03-04T13:00:57.848544","MEAN_MOTION":13.50996206,"ECCENTRICITY":0.00194044,"INCLINATION":88.9693,"RA_OF_ASC_NODE":94.7473,"ARG_OF_PERICENTER":110.5756,"MEAN_ANOMALY":249.7479,"EPHEMERIS_TYPE":0,"CLASSIFICATION_TYPE":"U","NORAD_CAT_ID":62785,"ELEMENT_SET_NO":999,"REV_AT_EPOCH":5823,"BSTAR":6.0006098e-5,"MEAN_MOTION_DOT":5.1e-7,"MEAN_MOTION_DDOT":0},{"OBJECT_NAME":"QIANFAN-56","OBJECT_ID":"2025-016B","EPOCH":"2026-03-04T13:24:32.500800","MEAN_MOTION":13.50998124,"ECCENTRICITY":0.0018037,"INCLINATION":88.9666,"RA_OF_ASC_NODE":94.5598,"ARG_OF_PERICENTER":112.531,"MEAN_ANOMALY":247.7753,"EPHEMERIS_TYPE":0,"CLASSIFICATION_TYPE":"U","NORAD_CAT_ID":62786,"ELEMENT_SET_NO":999,"REV_AT_EPOCH":5828,"BSTAR":7.3135525e-5,"MEAN_MOTION_DOT":6.0e-7,"MEAN_MOTION_DDOT":0},{"OBJECT_NAME":"QIANFAN-57","OBJECT_ID":"2025-016C","EPOCH":"2026-03-04T14:12:01.675584","MEAN_MOTION":13.50997025,"ECCENTRICITY":0.0001361,"INCLINATION":88.9698,"RA_OF_ASC_NODE":94.7354,"ARG_OF_PERICENTER":98.0148,"MEAN_ANOMALY":262.1158,"EPHEMERIS_TYPE":0,"CLASSIFICATION_TYPE":"U","NORAD_CAT_ID":62787,"ELEMENT_SET_NO":999,"REV_AT_EPOCH":5825,"BSTAR":7.2506274e-5,"MEAN_MOTION_DOT":5.9e-7,"MEAN_MOTION_DDOT":0},{"OBJECT_NAME":"QIANFAN-58","OBJECT_ID":"2025-016D","EPOCH":"2026-03-04T13:30:27.774144","MEAN_MOTION":13.50998647,"ECCENTRICITY":0.00160041,"INCLINATION":88.9667,"RA_OF_ASC_NODE":94.5447,"ARG_OF_PERICENTER":105.6267,"MEAN_ANOMALY":254.6652,"EPHEMERIS_TYPE":0,"CLASSIFICATION_TYPE":"U","NORAD_CAT_ID":62788,"ELEMENT_SET_NO":999,"REV_AT_EPOCH":5829,"BSTAR":8.4493045e-5,"MEAN_MOTION_DOT":6.7e-7,"MEAN_MOTION_DDOT":0},{"OBJECT_NAME":"QIANFAN-59","OBJECT_ID":"2025-016E","EPOCH":"2026-03-04T14:06:13.677120","MEAN_MOTION":13.50994493,"ECCENTRICITY":0.00163385,"INCLINATION":88.9691,"RA_OF_ASC_NODE":94.6353,"ARG_OF_PERICENTER":108.8704,"MEAN_ANOMALY":251.422,"EPHEMERIS_TYPE":0,"CLASSIFICATION_TYPE":"U","NORAD_CAT_ID":62789,"ELEMENT_SET_NO":999,"REV_AT_EPOCH":5829,"BSTAR":6.1856767e-5,"MEAN_MOTION_DOT":5.2e-7,"MEAN_MOTION_DDOT":0},{"OBJECT_NAME":"QIANFAN-60","OBJECT_ID":"2025-016F","EPOCH":"2026-03-04T13:06:59.512896","MEAN_MOTION":13.50992468,"ECCENTRICITY":0.00179164,"INCLINATION":88.9672,"RA_OF_ASC_NODE":94.5954,"ARG_OF_PERICENTER":106.0533,"MEAN_ANOMALY":254.2593,"EPHEMERIS_TYPE":0,"CLASSIFICATION_TYPE":"U","NORAD_CAT_ID":62790,"ELEMENT_SET_NO":999,"REV_AT_EPOCH":5827,"BSTAR":5.5157887e-5,"MEAN_MOTION_DOT":4.8e-7,"MEAN_MOTION_DDOT":0},{"OBJECT_NAME":"QIANFAN-61","OBJECT_ID":"2025-016G","EPOCH":"2026-03-04T13:54:23.871744","MEAN_MOTION":13.50993804,"ECCENTRICITY":0.00168426,"INCLINATION":88.9739,"RA_OF_ASC_NODE":94.8107,"ARG_OF_PERICENTER":105.3062,"MEAN_ANOMALY":254.9952,"EPHEMERIS_TYPE":0,"CLASSIFICATION_TYPE":"U","NORAD_CAT_ID":62791,"ELEMENT_SET_NO":999,"REV_AT_EPOCH":5829,"BSTAR":5.4280768e-5,"MEAN_MOTION_DOT":4.7e-7,"MEAN_MOTION_DDOT":0},{"OBJECT_NAME":"QIANFAN-62","OBJECT_ID":"2025-016H","EPOCH":"2026-03-04T14:00:13.519584","MEAN_MOTION":13.50996526,"ECCENTRICITY":0.00182172,"INCLINATION":88.9686,"RA_OF_ASC_NODE":94.6343,"ARG_OF_PERICENTER":105.6916,"MEAN_ANOMALY":254.6247,"EPHEMERIS_TYPE":0,"CLASSIFICATION_TYPE":"U","NORAD_CAT_ID":62792,"ELEMENT_SET_NO":999,"REV_AT_EPOCH":5828,"BSTAR":6.6505141e-5,"MEAN_MOTION_DOT":5.5e-7,"MEAN_MOTION_DDOT":0},{"OBJECT_NAME":"QIANFAN-63","OBJECT_ID":"2025-016J","EPOCH":"2026-03-04T12:49:10.294752","MEAN_MOTION":13.5099513,"ECCENTRICITY":0.00182515,"INCLINATION":88.9692,"RA_OF_ASC_NODE":94.5965,"ARG_OF_PERICENTER":110.5981,"MEAN_ANOMALY":249.713,"EPHEMERIS_TYPE":0,"CLASSIFICATION_TYPE":"U","NORAD_CAT_ID":62793,"ELEMENT_SET_NO":999,"REV_AT_EPOCH":5831,"BSTAR":5.5791373e-5,"MEAN_MOTION_DOT":4.8e-7,"MEAN_MOTION_DDOT":0},{"OBJECT_NAME":"QIANFAN-64","OBJECT_ID":"2025-016K","EPOCH":"2026-03-04T13:48:28.090368","MEAN_MOTION":13.5100531,"ECCENTRICITY":0.00162087,"INCLINATION":88.968,"RA_OF_ASC_NODE":94.5554,"ARG_OF_PERICENTER":104.0339,"MEAN_ANOMALY":256.2615,"EPHEMERIS_TYPE":0,"CLASSIFICATION_TYPE":"U","NORAD_CAT_ID":62794,"ELEMENT_SET_NO":999,"REV_AT_EPOCH":5831,"BSTAR":5.6654971e-5,"MEAN_MOTION_DOT":4.9e-7,"MEAN_MOTION_DDOT":0},{"OBJECT_NAME":"QIANFAN-65","OBJECT_ID":"2025-016L","EPOCH":"2026-03-04T13:42:24.724800","MEAN_MOTION":13.51008696,"ECCENTRICITY":0.0016069,"INCLINATION":88.9675,"RA_OF_ASC_NODE":94.5788,"ARG_OF_PERICENTER":105.592,"MEAN_ANOMALY":254.7006,"EPHEMERIS_TYPE":0,"CLASSIFICATION_TYPE":"U","NORAD_CAT_ID":62795,"ELEMENT_SET_NO":999,"REV_AT_EPOCH":5829,"BSTAR":5.3741315e-5,"MEAN_MOTION_DOT":4.7e-7,"MEAN_MOTION_DDOT":0},{"OBJECT_NAME":"QIANFAN-66","OBJECT_ID":"2025-016M","EPOCH":"2026-03-04T14:23:52.828800","MEAN_MOTION":13.50996839,"ECCENTRICITY":0.00171876,"INCLINATION":88.9695,"RA_OF_ASC_NODE":94.562,"ARG_OF_PERICENTER":101.7928,"MEAN_ANOMALY":258.5152,"EPHEMERIS_TYPE":0,"CLASSIFICATION_TYPE":"U","NORAD_CAT_ID":62796,"ELEMENT_SET_NO":999,"REV_AT_EPOCH":5834,"BSTAR":5.8261506e-5,"MEAN_MOTION_DOT":5.0e-7,"MEAN_MOTION_DDOT":0},{"OBJECT_NAME":"QIANFAN-67","OBJECT_ID":"2025-016N","EPOCH":"2026-03-04T12:43:04.422720","MEAN_MOTION":13.50995211,"ECCENTRICITY":0.0017125,"INCLINATION":88.9685,"RA_OF_ASC_NODE":94.5868,"ARG_OF_PERICENTER":108.0227,"MEAN_ANOMALY":252.2792,"EPHEMERIS_TYPE":0,"CLASSIFICATION_TYPE":"U","NORAD_CAT_ID":62797,"ELEMENT_SET_NO":999,"REV_AT_EPOCH":5830,"BSTAR":6.5431933e-5,"MEAN_MOTION_DOT":5.5e-7,"MEAN_MOTION_DDOT":0},{"OBJECT_NAME":"QIANFAN-68","OBJECT_ID":"2025-016P","EPOCH":"2026-03-04T14:18:05.293440","MEAN_MOTION":13.51005208,"ECCENTRICITY":0.00171956,"INCLINATION":88.9689,"RA_OF_ASC_NODE":94.6282,"ARG_OF_PERICENTER":106.3194,"MEAN_ANOMALY":253.985,"EPHEMERIS_TYPE":0,"CLASSIFICATION_TYPE":"U","NORAD_CAT_ID":62798,"ELEMENT_SET_NO":999,"REV_AT_EPOCH":5829,"BSTAR":8.2761666e-5,"MEAN_MOTION_DOT":6.6e-7,"MEAN_MOTION_DDOT":0}]
