QIANFAN-52              
1 62253U 24232S   26063.56977691  .00000078  00000+0  10217-3 0  9996
2 62253  89.0052  32.8466 0014193 323.0387  36.9785 13.51000668 78998
QIANFAN-53              
1 62254U 24232T   26063.54917515  .00000047  00000+0  55086-4 0  9994
2 62254  89.0059  32.9593 0013123 324.8817  35.1468 13.51003308 78956
QIANFAN-54              
1 62255U 24232U   26063.59035361  .00000067  00000+0  85892-4 0  9990
2 62255  89.0051  32.6265 0003178  40.8092 319.3297 13.51002795110460
QIANFAN-55              
1 62785U 25016A   26063.54233621  .00000051  00000+0  60006-4 0  9996
2 62785  88.9693  94.7473 0019404 110.5756 249.7479 13.50996206 58231
QIANFAN-56              
1 62786U 25016B   26063.55870950  .00000060  00000+0  73136-4 0  9998
2 62786  88.9666  94.5598 0018037 112.5310 247.7753 13.50998124 58286
QIANFAN-57              
1 62787U 25016C   26063.59168606  .00000059  00000+0  72506-4 0  9999
2 62787  88.9698  94.7354 0001361  98.0148 262.1158 13.50997025 58259
QIANFAN-58              
1 62788U 25016D   26063.56282146  .00000067  00000+0  84493-4 0  9990
2 62788  88.9667  94.5447 0016004 105.6267 254.6652 13.50998647 58294
QIANFAN-59              
1 62789U 25016E   26063.58765830  .00000052  00000+0  61857-4 0  9992
2 62789  88.9691  94.6353 0016338 108.8704 251.4220 13.50994493 58291
QIANFAN-60              
1 62790U 25016F   26063.54652214  .00000048  00000+0  55158-4 0  9993
2 62790  88.9672  94.5954 0017916 106.0533 254.2593 13.50992468 58273
QIANFAN-61              
1 62791U 25016G   26063.57944296  .00000047  00000+0  54281-4 0  9996
2 62791  88.9739  94.8107 0016842 105.3062 254.9952 13.50993804 58290
QIANFAN-62              
1 62792U 25016H   26063.58348981  .00000055  00000+0  66505-4 0  9998
2 62792  88.9686  94.6343 0018217 105.6916 254.6247 13.50996526 58288
QIANFAN-63              
1 62793U 25016J   26063.53414693  .00000048  00000+0  55791-4 0  9995
2 62793  88.9692  94.5965 0018251 110.5981 249.7130 13.50995130 58310
QIANFAN-64              
1 62794U 25016K   26063.57532512  .00000049  00000+0  56655-4 0  9992
2 62794  88.9680  94.5554 0016208 104.0339 256.2615 13.51005310 58311
QIANFAN-65              
1 62795U 25016L   26063.57111950  .00000047  00000+0  53741-4 0  9993
2 62795  88.9675  94.5788 0016069 105.5920 254.7006 13.51008696 58296
QIANFAN-66              
1 62796U 25016M   26063.59991700  .00000050  00000+0  58262-4 0  9992
2 62796  88.9695  94.5620 0017187 101.7928 258.5152 13.50996839 58346
QIANFAN-67              
1 62797U 25016N   26063.52991230  .00000055  00000+0  65432-4 0  9996
2 62797  88.9685  94.5868 0017125 108.0227 252.2792 13.50995211 58304
QIANFAN-68              
1 62798U 25016P   26063.59589460  .00000066  00000+0  82762-4 0  9999
2 62798  88.9689  94.6282 0017195 106.3194 253.9850 13.51005208 58291
